*******************************************************************************
Ephemeris / WWW_USER Fri Mar  7 11:23:25 2025 Pasadena, USA      / Horizons    
*******************************************************************************
Target body name: (2018 VN1)                      {source: JPL#9}
Center body name: Earth (399)                     {source: DE441}
Center-site name: Mauna Kea
*******************************************************************************
Start time      : A.D. 2018-Sep-03 04:45:00.0000 UT      
Stop  time      : A.D. 2018-Sep-03 15:57:00.0000 UT      
Step-size       : 1 minutes
*******************************************************************************
Target pole/equ : undefined
Target radii    : undefined                                                    
Center geodetic : 204.5278, 19.8260847, 4.21024   {E-lon(deg),Lat(deg),Alt(km)}
Center cylindric: 204.5278, 6006.35451, 2151.0229 {E-lon(deg),Dxy(km),Dz(km)}
Center pole/equ : ITRF93                          {East-longitude positive}
Center radii    : 6378.137, 6378.137, 6356.752 km {Equator_a, b, pole_c}       
Target primary  : Sun
Vis. interferer : MOON (R_eq= 1737.400) km        {source: DE441}
Rel. light bend : Sun                             {source: DE441}
Rel. lght bnd GM: 1.3271E+11 km^3/s^2                                          
Small-body perts: Yes                             {source: SB441-N16}
Atmos refraction: NO (AIRLESS)
RA format       : HMS
Time format     : CAL 
Calendar mode   : Mixed Julian/Gregorian
RTS-only print  : NO       
EOP file        : eop.250306.p250602                                           
EOP coverage    : DATA-BASED 1962-JAN-20 TO 2025-MAR-06. PREDICTS-> 2025-JUN-01
Units conversion: 1 au= 149597870.700 km, c= 299792.458 km/s, 1 day= 86400.0 s 
Table cut-offs 1: Elevation (-90.0deg=NO ),Airmass (>38.000=NO), Daylight (YES)
Table cut-offs 2: Solar elongation (  0.0,180.0=NO ),Local Hour Angle( 0.0=NO )
Table cut-offs 3: RA/DEC angular rate (     0.0=NO )                           
*******************************************************************************
Initial IAU76/J2000 heliocentric ecliptic osculating elements (au, days, deg.):
  EPOCH=  2458428.5 ! 2018-Nov-06.00 (TDB)         Residual RMS= .27219        
   EC= .3884608603153671   QR= 1.011903292497374   TP= 2458433.1511739166      
   OM= 228.4137592171332   W=  180.2469578564258   IN= 3.355185598403424       
  Equivalent ICRF heliocentric cartesian coordinates (au, au/d):
   X= 7.364971791856070E-01  Y= 6.361813492829538E-01  Z= 2.815132693616627E-01
  VX=-1.417073247356795E-02 VY= 1.354428742085641E-02 VZ= 4.590405825264917E-03
Asteroid physical parameters (km, seconds, rotational period in hours):        
   GM= n.a.                RAD= n.a.               ROTPER= n.a.                
   H= 26.2                 G= .150                 B-V= n.a.                   
                           ALBEDO= n.a.            STYP= n.a.                  
*******************************************************************************
 Date__(UT)__HR:MN     R.A._________(ICRF)_________DEC
******************************************************
$$SOE
 2018-Sep-03 12:57  m  22 24 54.313790 +08 31 11.07359
 2018-Sep-03 12:58  m  22 24 54.277364 +08 31 11.46638
 2018-Sep-03 12:59  m  22 24 54.240971 +08 31 11.85909
 2018-Sep-03 13:00  m  22 24 54.204611 +08 31 12.25172
 2018-Sep-03 13:01  m  22 24 54.168285 +08 31 12.64427
 2018-Sep-03 13:02  m  22 24 54.131992 +08 31 13.03674
 2018-Sep-03 13:03  m  22 24 54.095732 +08 31 13.42913
 2018-Sep-03 13:04  m  22 24 54.059507 +08 31 13.82145
 2018-Sep-03 13:05  m  22 24 54.023315 +08 31 14.21368
 2018-Sep-03 13:06  m  22 24 53.987158 +08 31 14.60584
 2018-Sep-03 13:07  m  22 24 53.951035 +08 31 14.99793
 2018-Sep-03 13:08  m  22 24 53.914946 +08 31 15.38993
 2018-Sep-03 13:09  m  22 24 53.878892 +08 31 15.78186
 2018-Sep-03 13:10  m  22 24 53.842873 +08 31 16.17371
 2018-Sep-03 13:11  m  22 24 53.806888 +08 31 16.56549
 2018-Sep-03 13:12  m  22 24 53.770938 +08 31 16.95719
 2018-Sep-03 13:13  m  22 24 53.735024 +08 31 17.34882
 2018-Sep-03 13:14  m  22 24 53.699144 +08 31 17.74037
 2018-Sep-03 13:15  m  22 24 53.663301 +08 31 18.13185
 2018-Sep-03 13:16  m  22 24 53.627492 +08 31 18.52326
 2018-Sep-03 13:17  m  22 24 53.591719 +08 31 18.91459
 2018-Sep-03 13:18  m  22 24 53.555982 +08 31 19.30584
 2018-Sep-03 13:19  m  22 24 53.520281 +08 31 19.69703
 2018-Sep-03 13:20  m  22 24 53.484616 +08 31 20.08814
 2018-Sep-03 13:21  m  22 24 53.448988 +08 31 20.47918
 2018-Sep-03 13:22  m  22 24 53.413395 +08 31 20.87015
 2018-Sep-03 13:23  m  22 24 53.377839 +08 31 21.26104
 2018-Sep-03 13:24  m  22 24 53.342320 +08 31 21.65187
 2018-Sep-03 13:25  m  22 24 53.306838 +08 31 22.04262
 2018-Sep-03 13:26  m  22 24 53.271392 +08 31 22.43330
 2018-Sep-03 13:27  m  22 24 53.235983 +08 31 22.82392
 2018-Sep-03 13:28  m  22 24 53.200612 +08 31 23.21446
 2018-Sep-03 13:29  m  22 24 53.165277 +08 31 23.60493
 2018-Sep-03 13:30  m  22 24 53.129980 +08 31 23.99534
 2018-Sep-03 13:31  m  22 24 53.094721 +08 31 24.38568
 2018-Sep-03 13:32  m  22 24 53.059499 +08 31 24.77594
 2018-Sep-03 13:33  m  22 24 53.024315 +08 31 25.16615
 2018-Sep-03 13:34  m  22 24 52.989169 +08 31 25.55628
 2018-Sep-03 13:35  m  22 24 52.954061 +08 31 25.94634
 2018-Sep-03 13:36  m  22 24 52.918991 +08 31 26.33634
 2018-Sep-03 13:37  m  22 24 52.883959 +08 31 26.72627
 2018-Sep-03 13:38  m  22 24 52.848966 +08 31 27.11614
 2018-Sep-03 13:39  m  22 24 52.814011 +08 31 27.50594
 2018-Sep-03 13:40  m  22 24 52.779095 +08 31 27.89568
 2018-Sep-03 13:41  m  22 24 52.744217 +08 31 28.28535
 2018-Sep-03 13:42  m  22 24 52.709379 +08 31 28.67495
 2018-Sep-03 13:43  m  22 24 52.674579 +08 31 29.06449
 2018-Sep-03 13:44  m  22 24 52.639818 +08 31 29.45397
 2018-Sep-03 13:45  m  22 24 52.605097 +08 31 29.84339
 2018-Sep-03 13:46  m  22 24 52.570415 +08 31 30.23274
 2018-Sep-03 13:47  m  22 24 52.535773 +08 31 30.62203
 2018-Sep-03 13:48  m  22 24 52.501170 +08 31 31.01125
 2018-Sep-03 13:49  m  22 24 52.466606 +08 31 31.40042
 2018-Sep-03 13:50  m  22 24 52.432083 +08 31 31.78952
 2018-Sep-03 13:51  m  22 24 52.397599 +08 31 32.17856
 2018-Sep-03 13:52  m  22 24 52.363156 +08 31 32.56754
 2018-Sep-03 13:53  m  22 24 52.328752 +08 31 32.95647
 2018-Sep-03 13:54  m  22 24 52.294389 +08 31 33.34533
 2018-Sep-03 13:55  m  22 24 52.260066 +08 31 33.73413
 2018-Sep-03 13:56  m  22 24 52.225784 +08 31 34.12287
 2018-Sep-03 13:57  m  22 24 52.191542 +08 31 34.51155
 2018-Sep-03 13:58  m  22 24 52.157341 +08 31 34.90018
 2018-Sep-03 13:59  m  22 24 52.123181 +08 31 35.28875
 2018-Sep-03 14:00  m  22 24 52.089061 +08 31 35.67726
 2018-Sep-03 14:01  m  22 24 52.054983 +08 31 36.06571
 2018-Sep-03 14:02  m  22 24 52.020945 +08 31 36.45411
 2018-Sep-03 14:03  m  22 24 51.986949 +08 31 36.84245
 2018-Sep-03 14:04  m  22 24 51.952994 +08 31 37.23073
 2018-Sep-03 14:05  m  22 24 51.919081 +08 31 37.61896
 2018-Sep-03 14:06  m  22 24 51.885208 +08 31 38.00713
 2018-Sep-03 14:07  m  22 24 51.851378 +08 31 38.39525
 2018-Sep-03 14:08  m  22 24 51.817589 +08 31 38.78331
 2018-Sep-03 14:09  m  22 24 51.783842 +08 31 39.17132
 2018-Sep-03 14:10  m  22 24 51.750137 +08 31 39.55928
 2018-Sep-03 14:11  m  22 24 51.716474 +08 31 39.94718
 2018-Sep-03 14:12  m  22 24 51.682853 +08 31 40.33503
 2018-Sep-03 14:13  m  22 24 51.649274 +08 31 40.72283
 2018-Sep-03 14:14  m  22 24 51.615738 +08 31 41.11058
 2018-Sep-03 14:15  m  22 24 51.582244 +08 31 41.49827
 2018-Sep-03 14:16  m  22 24 51.548792 +08 31 41.88592
 2018-Sep-03 14:17  m  22 24 51.515383 +08 31 42.27351
 2018-Sep-03 14:18  m  22 24 51.482016 +08 31 42.66106
 2018-Sep-03 14:19  m  22 24 51.448693 +08 31 43.04855
 2018-Sep-03 14:20  m  22 24 51.415412 +08 31 43.43599
 2018-Sep-03 14:21  m  22 24 51.382174 +08 31 43.82339
 2018-Sep-03 14:22  m  22 24 51.348979 +08 31 44.21074
 2018-Sep-03 14:23  m  22 24 51.315827 +08 31 44.59804
 2018-Sep-03 14:24  m  22 24 51.282718 +08 31 44.98529
 2018-Sep-03 14:25  m  22 24 51.249652 +08 31 45.37249
 2018-Sep-03 14:26  m  22 24 51.216630 +08 31 45.75965
 2018-Sep-03 14:27  m  22 24 51.183651 +08 31 46.14676
 2018-Sep-03 14:28  m  22 24 51.150716 +08 31 46.53382
 2018-Sep-03 14:29  m  22 24 51.117824 +08 31 46.92084
 2018-Sep-03 14:30  m  22 24 51.084976 +08 31 47.30782
 2018-Sep-03 14:31  m  22 24 51.052172 +08 31 47.69475
 2018-Sep-03 14:32  m  22 24 51.019412 +08 31 48.08163
 2018-Sep-03 14:33  m  22 24 50.986695 +08 31 48.46847
 2018-Sep-03 14:34  m  22 24 50.954023 +08 31 48.85527
 2018-Sep-03 14:35  m  22 24 50.921394 +08 31 49.24203
 2018-Sep-03 14:36  m  22 24 50.888810 +08 31 49.62874
 2018-Sep-03 14:37  m  22 24 50.856270 +08 31 50.01541
 2018-Sep-03 14:38  m  22 24 50.823774 +08 31 50.40204
 2018-Sep-03 14:39  m  22 24 50.791322 +08 31 50.78863
 2018-Sep-03 14:40  m  22 24 50.758915 +08 31 51.17517
 2018-Sep-03 14:41  m  22 24 50.726553 +08 31 51.56168
 2018-Sep-03 14:42  m  22 24 50.694235 +08 31 51.94815
 2018-Sep-03 14:43  m  22 24 50.661961 +08 31 52.33457
 2018-Sep-03 14:44  m  22 24 50.629733 +08 31 52.72096
 2018-Sep-03 14:45  m  22 24 50.597549 +08 31 53.10731
 2018-Sep-03 14:46  m  22 24 50.565410 +08 31 53.49362
 2018-Sep-03 14:47  m  22 24 50.533316 +08 31 53.87990
 2018-Sep-03 14:48  m  22 24 50.501266 +08 31 54.26613
 2018-Sep-03 14:49  m  22 24 50.469262 +08 31 54.65233
 2018-Sep-03 14:50  m  22 24 50.437303 +08 31 55.03849
 2018-Sep-03 14:51  m  22 24 50.405390 +08 31 55.42462
 2018-Sep-03 14:52  m  22 24 50.373521 +08 31 55.81071
 2018-Sep-03 14:53 Am  22 24 50.341698 +08 31 56.19677
 2018-Sep-03 14:54 Am  22 24 50.309920 +08 31 56.58279
 2018-Sep-03 14:55 Am  22 24 50.278187 +08 31 56.96878
 2018-Sep-03 14:56 Am  22 24 50.246500 +08 31 57.35473
 2018-Sep-03 14:57 Am  22 24 50.214859 +08 31 57.74065
 2018-Sep-03 14:58 Am  22 24 50.183263 +08 31 58.12654
 2018-Sep-03 14:59 Am  22 24 50.151712 +08 31 58.51240
